{
  "norad_id": 64212,
  "name": "STARLINK-34284",
  "history": [
    {
      "epoch": "2026-03-28T21:59:31.728480Z",
      "apogee_km": 475.98626089400204,
      "perigee_km": 474.4730375378549,
      "latitude_deg": 1.1010271134742992e-05,
      "longitude_deg": 153.7815848951671,
      "height_km": 476.018909468328,
      "semi_major_axis_km": 6853.366649215928,
      "eccentricity": 0.0001104,
      "inclination_deg": 53.1586,
      "raan_deg": 309.9937,
      "arg_perigee_deg": 81.7243,
      "mean_anomaly_deg": 278.3883,
      "mean_motion_rev_day": 15.30195117
    }
  ]
}