{"fetched_at":"2026-03-30T20:46:33Z","count":15425,"tles":[{"name":"STARLINK-34284","line1":"1 64212U 25117K   26087.91633945  .00022057  00000+0  75475-3 0  9990","line2":"2 64212  53.1586 309.9937 0001104  81.7243 278.3883 15.30195117 47470","category":"Starlink"}]}